IRIDIUM 57 [-]          
1 25273U 98019B   23328.66651462  .00000630  00000+0  21452-3 0  9995
2 25273  86.3991  24.1725 0002160  94.0319 266.1124 14.34992191342940
IRIDIUM 63 [-]          
1 25286U 98021B   23328.90498370  .00000747  00000+0  25320-3 0  9993
2 25286  86.3957 321.0186 0002109  86.2195 273.9243 14.35497725342003
IRIDIUM 69 [-]          
1 25319U 98026A   23328.94635336  .00000866  00000+0  27078-3 0  9998
2 25319  86.3973 335.9866 0004460  97.4224 262.7481 14.39679025340980
IRIDIUM 71 [-]          
1 25320U 98026B   23328.92280421  .00000796  00000+0  24678-3 0  9994
2 25320  86.3961 330.8133 0003418 128.0334 232.1174 14.40002716341491
IRIDIUM 73 [-]          
1 25344U 98032C   23328.90858846  .00001173  00000+0  29696-3 0  9992
2 25344  86.4387 288.5572 0002972  93.4927 266.6617 14.50146167347875
IRIDIUM 82 [-]          
1 25467U 98051A   23328.63772868  .00016425  00000+0  94912-3 0  9997
2 25467  86.3982  22.5543 0141471 251.8313 106.7476 15.04002874337537
IRIDIUM 2 [-]           
1 25527U 98066A   23328.76598723  .00054105  00000+0  11049-2 0  9996
2 25527  85.5184  73.4145 0004550  46.7798 313.3837 15.45952376375878
